CTC1_L_00258001-01
1 64363U 26360UH  26070.40834491  .00000000  00000+0  00000-0 0  9996
2 64363  45.0000   0.0000 0000000   0.0000   0.0000 15.38683946    17
CTC1_L_00258001-02
1 64364U 24123AZ  26070.40834491  .00000000  00000+0  00000-0 0  9992
2 64364  45.0000   0.0000 0000000   0.0000  90.0000 15.38683946    17
CTC1_L_00258001-03
1 64365U 23285QX  26070.40834491  .00000000  00000+0  00000-0 0  9991
2 64365  45.0000   0.0000 0000000   0.0000 180.0000 15.38683946    18
CTC1_L_00258001-04
1 64366U 24159MO  26070.40834491  .00000000  00000+0  00000-0 0  9993
2 64366  45.0000   0.0000 0000000   0.0000 270.0000 15.38683946    19
CTC1_L_00258002-01
1 64367U 24894KF  26070.40834491  .00000000  00000+0  00000-0 0  9990
2 64367  45.0000  12.0000 0000000   0.0000  12.0000 15.38683946    17
CTC1_L_00258002-02
1 64368U 23074QJ  26070.40834491  .00000000  00000+0  00000-0 0  9990
2 64368  45.0000  12.0000 0000000   0.0000 102.0000 15.38683946    18
CTC1_L_00258002-03
1 64369U 22016E   26070.40834491  .00000000  00000+0  00000-0 0  9996
2 64369  45.0000  12.0000 0000000   0.0000 192.0000 15.38683946    18
CTC1_L_00258002-04
1 64370U 26925VR  26070.40834491  .00000000  00000+0  00000-0 0  9991
2 64370  45.0000  12.0000 0000000   0.0000 282.0000 15.38683946    10
CTC1_L_00258003-01
1 64371U 26972KF  26070.40834491  .00000000  00000+0  00000-0 0  9994
2 64371  45.0000  24.0000 0000000   0.0000  24.0000 15.38683946    18
CTC1_L_00258003-02
1 64372U 23400WI  26070.40834491  .00000000  00000+0  00000-0 0  9998
2 64372  45.0000  24.0000 0000000   0.0000 114.0000 15.38683946    19
CTC1_L_00258003-03
1 64373U 22746PR  26070.40834491  .00000000  00000+0  00000-0 0  9991
2 64373  45.0000  24.0000 0000000   0.0000 204.0000 15.38683946    10
CTC1_L_00258003-04
1 64374U 26761WS  26070.40834491  .00000000  00000+0  00000-0 0  9993
2 64374  45.0000  24.0000 0000000   0.0000 294.0000 15.38683946    10
CTC1_L_00258004-01
1 64375U 25744WN  26070.40834491  .00000000  00000+0  00000-0 0  9994
2 64375  45.0000  36.0000 0000000   0.0000  36.0000 15.38683946    18
CTC1_L_00258004-02
1 64376U 25477AW  26070.40834491  .00000000  00000+0  00000-0 0  9998
2 64376  45.0000  36.0000 0000000   0.0000 126.0000 15.38683946    19
CTC1_L_00258004-03
1 64377U 26362DL  26070.40834491  .00000000  00000+0  00000-0 0  9993
2 64377  45.0000  36.0000 0000000   0.0000 216.0000 15.38683946    10
CTC1_L_00258004-04
1 64378U 26958LP  26070.40834491  .00000000  00000+0  00000-0 0  9995
2 64378  45.0000  36.0000 0000000   0.0000 306.0000 15.38683946    11
CTC1_L_00258005-01
1 64379U 23608YK  26070.40834491  .00000000  00000+0  00000-0 0  9995
2 64379  45.0000  48.0000 0000000   0.0000  48.0000 15.38683946    18
CTC1_L_00258005-02
1 64380U 26961GB  26070.40834491  .00000000  00000+0  00000-0 0  9992
2 64380  45.0000  48.0000 0000000   0.0000 138.0000 15.38683946    10
CTC1_L_00258005-03
1 64381U 23431AZ  26070.40834491  .00000000  00000+0  00000-0 0  9992
2 64381  45.0000  48.0000 0000000   0.0000 228.0000 15.38683946    11
CTC1_L_00258005-04
1 64382U 22855CI  26070.40834491  .00000000  00000+0  00000-0 0  9992
2 64382  45.0000  48.0000 0000000   0.0000 318.0000 15.38683946    12
CTC1_L_00258006-01
1 64383U 23192GM  26070.40834491  .00000000  00000+0  00000-0 0  9998
2 64383  45.0000  60.0000 0000000   0.0000  60.0000 15.38683946    11
CTC1_L_00258006-02
1 64384U 25306KT  26070.40834491  .00000000  00000+0  00000-0 0  9998
2 64384  45.0000  60.0000 0000000   0.0000 150.0000 15.38683946    12
CTC1_L_00258006-03
1 64385U 24648EJ  26070.40834491  .00000000  00000+0  00000-0 0  9997
2 64385  45.0000  60.0000 0000000   0.0000 240.0000 15.38683946    13
CTC1_L_00258006-04
1 64386U 23645GP  26070.40834491  .00000000  00000+0  00000-0 0  9994
2 64386  45.0000  60.0000 0000000   0.0000 330.0000 15.38683946    14
CTC1_L_00258007-01
1 64387U 22502MK  26070.40834491  .00000000  00000+0  00000-0 0  9996
2 64387  45.0000  72.0000 0000000   0.0000  72.0000 15.38683946    11
CTC1_L_00258007-02
1 64388U 26510NQ  26070.40834491  .00000000  00000+0  00000-0 0  9990
2 64388  45.0000  72.0000 0000000   0.0000 162.0000 15.38683946    12
CTC1_L_00258007-03
1 64389U 25316VB  26070.40834491  .00000000  00000+0  00000-0 0  9994
2 64389  45.0000  72.0000 0000000   0.0000 252.0000 15.38683946    13
CTC1_L_00258007-04
1 64390U 23594BV  26070.40834491  .00000000  00000+0  00000-0 0  9992
2 64390  45.0000  72.0000 0000000   0.0000 342.0000 15.38683946    15
CTC1_L_00258008-01
1 64391U 26197F   26070.40834491  .00000000  00000+0  00000-0 0  9995
2 64391  45.0000  84.0000 0000000   0.0000  84.0000 15.38683946    12
CTC1_L_00258008-02
1 64392U 22200NY  26070.40834491  .00000000  00000+0  00000-0 0  9997
2 64392  45.0000  84.0000 0000000   0.0000 174.0000 15.38683946    13
CTC1_L_00258008-03
1 64393U 24349WA  26070.40834491  .00000000  00000+0  00000-0 0  9994
2 64393  45.0000  84.0000 0000000   0.0000 264.0000 15.38683946    14
CTC1_L_00258008-04
1 64394U 22174OA  26070.40834491  .00000000  00000+0  00000-0 0  9999
2 64394  45.0000  84.0000 0000000   0.0000 354.0000 15.38683946    15
CTC1_L_00258009-01
1 64395U 26537PR  26070.40834491  .00000000  00000+0  00000-0 0  9997
2 64395  45.0000  96.0000 0000000   0.0000  96.0000 15.38683946    12
CTC1_L_00258009-02
1 64396U 26063HC  26070.40834491  .00000000  00000+0  00000-0 0  9992
2 64396  45.0000  96.0000 0000000   0.0000 186.0000 15.38683946    13
CTC1_L_00258009-03
1 64397U 24043RK  26070.40834491  .00000000  00000+0  00000-0 0  9999
2 64397  45.0000  96.0000 0000000   0.0000 276.0000 15.38683946    14
CTC1_L_00258009-04
1 64398U 25800WE  26070.40834491  .00000000  00000+0  00000-0 0  9992
2 64398  45.0000  96.0000 0000000   0.0000   6.0000 15.38683946    16
CTC1_L_00258010-01
1 64399U 26506YP  26070.40834491  .00000000  00000+0  00000-0 0  9997
2 64399  45.0000 108.0000 0000000   0.0000 108.0000 15.38683946    14
CTC1_L_00258010-02
1 64400U 26054IH  26070.40834491  .00000000  00000+0  00000-0 0  9998
2 64400  45.0000 108.0000 0000000   0.0000 198.0000 15.38683946    16
CTC1_L_00258010-03
1 64401U 25516DA  26070.40834491  .00000000  00000+0  00000-0 0  9991
2 64401  45.0000 108.0000 0000000   0.0000 288.0000 15.38683946    17
CTC1_L_00258010-04
1 64402U 22771WS  26070.40834491  .00000000  00000+0  00000-0 0  9992
2 64402  45.0000 108.0000 0000000   0.0000  18.0000 15.38683946    19
CTC1_L_00258011-01
1 64403U 22157FD  26070.40834491  .00000000  00000+0  00000-0 0  9991
2 64403  45.0000 120.0000 0000000   0.0000 120.0000 15.38683946    18
CTC1_L_00258011-02
1 64404U 22385PH  26070.40834491  .00000000  00000+0  00000-0 0  9995
2 64404  45.0000 120.0000 0000000   0.0000 210.0000 15.38683946    19
CTC1_L_00258011-03
1 64405U 24418DY  26070.40834491  .00000000  00000+0  00000-0 0  9995
2 64405  45.0000 120.0000 0000000   0.0000 300.0000 15.38683946    10
CTC1_L_00258011-04
1 64406U 22602TB  26070.40834491  .00000000  00000+0  00000-0 0  9999
2 64406  45.0000 120.0000 0000000   0.0000  30.0000 15.38683946    11
CTC1_L_00258012-01
1 64407U 26589BB  26070.40834491  .00000000  00000+0  00000-0 0  9998
2 64407  45.0000 132.0000 0000000   0.0000 132.0000 15.38683946    18
CTC1_L_00258012-02
1 64408U 22369KU  26070.40834491  .00000000  00000+0  00000-0 0  9991
2 64408  45.0000 132.0000 0000000   0.0000 222.0000 15.38683946    19
CTC1_L_00258012-03
1 64409U 26690YU  26070.40834491  .00000000  00000+0  00000-0 0  9993
2 64409  45.0000 132.0000 0000000   0.0000 312.0000 15.38683946    10
CTC1_L_00258012-04
1 64410U 24417DE  26070.40834491  .00000000  00000+0  00000-0 0  9990
2 64410  45.0000 132.0000 0000000   0.0000  42.0000 15.38683946    12
CTC1_L_00258013-01
1 64411U 24611MD  26070.40834491  .00000000  00000+0  00000-0 0  9997
2 64411  45.0000 144.0000 0000000   0.0000 144.0000 15.38683946    19
CTC1_L_00258013-02
1 64412U 24414AF  26070.40834491  .00000000  00000+0  00000-0 0  9999
2 64412  45.0000 144.0000 0000000   0.0000 234.0000 15.38683946    10
CTC1_L_00258013-03
1 64413U 24751OM  26070.40834491  .00000000  00000+0  00000-0 0  9994
2 64413  45.0000 144.0000 0000000   0.0000 324.0000 15.38683946    11
CTC1_L_00258013-04
1 64414U 24651JQ  26070.40834491  .00000000  00000+0  00000-0 0  9994
2 64414  45.0000 144.0000 0000000   0.0000  54.0000 15.38683946    12
CTC1_L_00258014-01
1 64415U 23145AT  26070.40834491  .00000000  00000+0  00000-0 0  9992
2 64415  45.0000 156.0000 0000000   0.0000 156.0000 15.38683946    19
CTC1_L_00258014-02
1 64416U 26194KA  26070.40834491  .00000000  00000+0  00000-0 0  9990
2 64416  45.0000 156.0000 0000000   0.0000 246.0000 15.38683946    10
CTC1_L_00258014-03
1 64417U 26157XK  26070.40834491  .00000000  00000+0  00000-0 0  9990
2 64417  45.0000 156.0000 0000000   0.0000 336.0000 15.38683946    11
CTC1_L_00258014-04
1 64418U 23176PM  26070.40834491  .00000000  00000+0  00000-0 0  9999
2 64418  45.0000 156.0000 0000000   0.0000  66.0000 15.38683946    12
CTC1_L_00258015-01
1 64419U 23127RQ  26070.40834491  .00000000  00000+0  00000-0 0  9996
2 64419  45.0000 168.0000 0000000   0.0000 168.0000 15.38683946    19
CTC1_L_00258015-02
1 64420U 25078VT  26070.40834491  .00000000  00000+0  00000-0 0  9995
2 64420  45.0000 168.0000 0000000   0.0000 258.0000 15.38683946    11
CTC1_L_00258015-03
1 64421U 25034TO  26070.40834491  .00000000  00000+0  00000-0 0  9998
2 64421  45.0000 168.0000 0000000   0.0000 348.0000 15.38683946    12
CTC1_L_00258015-04
1 64422U 26205KC  26070.40834491  .00000000  00000+0  00000-0 0  9990
2 64422  45.0000 168.0000 0000000   0.0000  78.0000 15.38683946    13
CTC1_L_00258016-01
1 64423U 26254JK  26070.40834491  .00000000  00000+0  00000-0 0  9995
2 64423  45.0000 180.0000 0000000   0.0000 180.0000 15.38683946    12
CTC1_L_00258016-02
1 64424U 22186DF  26070.40834491  .00000000  00000+0  00000-0 0  9996
2 64424  45.0000 180.0000 0000000   0.0000 270.0000 15.38683946    13
